YOTSUBA-KULOVER         
1 65941U 98067XN  26060.15962145  .00171611  00000+0  10227-2 0  9992
2 65941  51.6221 101.4144 0006185  18.2254 341.8967 15.76864019 22156
BOTAN                   
1 65942U 98067XP  26060.08110208  .01860873  29982-2  17094-2 0  9998
2 65942  51.6094  94.7474 0007211  36.2980 323.8523 16.12394411 22234
E-KAGAKU-1              
1 65943U 98067XQ  26059.40185492  .00152253  00000+0  92964-3 0  9992
2 65943  51.6247 105.3702 0006317  22.7475 337.3804 15.76374151 22031
HRC MONOBLOCK CAMERA    
1 66052U 98067XR  26059.48539460  .00048343  00000+0  56485-3 0  9992
2 66052  51.6279 111.9480 0003213  53.0809 307.0478 15.61100272 20959
HTV-X1                  
1 66174U 25241A   26059.86525056  .00009465  00000+0  18358-3 0  9998
2 66174  51.6324 115.9816 0008297 143.6601 216.4951 15.48367881554682
SZ-21 MODULE            
1 66515U 25246C   26059.58432385  .00035117  00000+0  31267-3 0  9990
2 66515  41.4737 259.3806 0001436 285.8647  74.2036 15.67747367 16640
SHENZHOU-22             
1 66645U 25272A   26060.01143168  .00024837  00000+0  29853-3 0  9996
2 66645  41.4653 260.9503 0006366 218.7650 141.2732 15.60257828267758
SOYUZ-MS 28             
1 66664U 25275A   26059.86525056  .00009465  00000+0  18358-3 0  9999
2 66664  51.6324 115.9816 0008297 143.6601 216.4951 15.48367881554732
DUPLEX                  
1 66906U 98067XS  26060.17214807  .00031633  00000+0  45805-3 0  9991
2 66906  51.6292 112.0353 0001967  86.4568 273.6648 15.55590470 13808
ISS OBJECT XT           
1 66907U 98067XT  26060.16893205  .00132484  00000+0  12318-2 0  9994
2 66907  51.6254 109.0047 0004436  28.9077 331.2164 15.66463408 13843
ISS OBJECT XU           
1 66908U 98067XU  26060.16767169  .00132413  00000+0  12275-2 0  9998
2 66908  51.6251 108.9935 0004579  31.2531 328.8736 15.66535330 13846
SILVERSAT               
1 66909U 98067XV  26060.18272875  .00160308  00000+0  13491-2 0  9991
2 66909  51.6254 108.3441 0005379  26.9619 333.1656 15.68808250 13850
