CCSDS_OMM_VERS = 2.0
CREATION_DATE  = 
ORIGINATOR     = 

OBJECT_NAME    = YOTSUBA-KULOVER
OBJECT_ID      = 1998-067XN
CENTER_NAME    = EARTH
REF_FRAME      = TEME
TIME_SYSTEM    = UTC
MEAN_ELEMENT_THEORY = SGP/SGP4

EPOCH          = 2026-03-01T03:49:51.293280
MEAN_MOTION    = 15.76864019
ECCENTRICITY   = .0006185
INCLINATION    = 51.6221
RA_OF_ASC_NODE = 101.4144
ARG_OF_PERICENTER = 18.2254
MEAN_ANOMALY   = 341.8967

EPHEMERIS_TYPE = 0
CLASSIFICATION_TYPE = U
NORAD_CAT_ID   = 65941
ELEMENT_SET_NO = 999
REV_AT_EPOCH   = 2215
BSTAR          = .10227E-2
MEAN_MOTION_DOT = .171611E-2
MEAN_MOTION_DDOT = 0

CCSDS_OMM_VERS = 2.0
CREATION_DATE  = 
ORIGINATOR     = 

OBJECT_NAME    = BOTAN
OBJECT_ID      = 1998-067XP
CENTER_NAME    = EARTH
REF_FRAME      = TEME
TIME_SYSTEM    = UTC
MEAN_ELEMENT_THEORY = SGP/SGP4

EPOCH          = 2026-03-01T01:56:47.219712
MEAN_MOTION    = 16.12394411
ECCENTRICITY   = .0007211
INCLINATION    = 51.6094
RA_OF_ASC_NODE = 94.7474
ARG_OF_PERICENTER = 36.2980
MEAN_ANOMALY   = 323.8523

EPHEMERIS_TYPE = 0
CLASSIFICATION_TYPE = U
NORAD_CAT_ID   = 65942
ELEMENT_SET_NO = 999
REV_AT_EPOCH   = 2223
BSTAR          = .17094E-2
MEAN_MOTION_DOT = .1860873E-1
MEAN_MOTION_DDOT = .29982E-2

CCSDS_OMM_VERS = 2.0
CREATION_DATE  = 
ORIGINATOR     = 

OBJECT_NAME    = E-KAGAKU-1
OBJECT_ID      = 1998-067XQ
CENTER_NAME    = EARTH
REF_FRAME      = TEME
TIME_SYSTEM    = UTC
MEAN_ELEMENT_THEORY = SGP/SGP4

EPOCH          = 2026-02-28T09:38:40.265088
MEAN_MOTION    = 15.76374151
ECCENTRICITY   = .00063173
INCLINATION    = 51.6247
RA_OF_ASC_NODE = 105.3702
ARG_OF_PERICENTER = 22.7475
MEAN_ANOMALY   = 337.3804

EPHEMERIS_TYPE = 0
CLASSIFICATION_TYPE = U
NORAD_CAT_ID   = 65943
ELEMENT_SET_NO = 999
REV_AT_EPOCH   = 2203
BSTAR          = .92963939E-3
MEAN_MOTION_DOT = .152253E-2
MEAN_MOTION_DDOT = 0

CCSDS_OMM_VERS = 2.0
CREATION_DATE  = 
ORIGINATOR     = 

OBJECT_NAME    = HRC MONOBLOCK CAMERA
OBJECT_ID      = 1998-067XR
CENTER_NAME    = EARTH
REF_FRAME      = TEME
TIME_SYSTEM    = UTC
MEAN_ELEMENT_THEORY = SGP/SGP4

EPOCH          = 2026-02-28T11:38:58.093440
MEAN_MOTION    = 15.61100272
ECCENTRICITY   = .00032136
INCLINATION    = 51.6279
RA_OF_ASC_NODE = 111.9480
ARG_OF_PERICENTER = 53.0809
MEAN_ANOMALY   = 307.0478

EPHEMERIS_TYPE = 0
CLASSIFICATION_TYPE = U
NORAD_CAT_ID   = 66052
ELEMENT_SET_NO = 999
REV_AT_EPOCH   = 2095
BSTAR          = .56485252E-3
MEAN_MOTION_DOT = .48343E-3
MEAN_MOTION_DDOT = 0

CCSDS_OMM_VERS = 2.0
CREATION_DATE  = 
ORIGINATOR     = 

OBJECT_NAME    = HTV-X1
OBJECT_ID      = 2025-241A
CENTER_NAME    = EARTH
REF_FRAME      = TEME
TIME_SYSTEM    = UTC
MEAN_ELEMENT_THEORY = SGP/SGP4

EPOCH          = 2026-02-28T20:45:57.648384
MEAN_MOTION    = 15.48367881
ECCENTRICITY   = .0008297
INCLINATION    = 51.6324
RA_OF_ASC_NODE = 115.9816
ARG_OF_PERICENTER = 143.6601
MEAN_ANOMALY   = 216.4951

EPHEMERIS_TYPE = 0
CLASSIFICATION_TYPE = U
NORAD_CAT_ID   = 66174
ELEMENT_SET_NO = 999
REV_AT_EPOCH   = 55468
BSTAR          = .18358E-3
MEAN_MOTION_DOT = .9465E-4
MEAN_MOTION_DDOT = 0

CCSDS_OMM_VERS = 2.0
CREATION_DATE  = 
ORIGINATOR     = 

OBJECT_NAME    = SZ-21 MODULE
OBJECT_ID      = 2025-246C
CENTER_NAME    = EARTH
REF_FRAME      = TEME
TIME_SYSTEM    = UTC
MEAN_ELEMENT_THEORY = SGP/SGP4

EPOCH          = 2026-02-28T14:01:25.580640
MEAN_MOTION    = 15.67747367
ECCENTRICITY   = .0001436
INCLINATION    = 41.4737
RA_OF_ASC_NODE = 259.3806
ARG_OF_PERICENTER = 285.8647
MEAN_ANOMALY   = 74.2036

EPHEMERIS_TYPE = 0
CLASSIFICATION_TYPE = U
NORAD_CAT_ID   = 66515
ELEMENT_SET_NO = 999
REV_AT_EPOCH   = 1664
BSTAR          = .31267443E-3
MEAN_MOTION_DOT = .35117E-3
MEAN_MOTION_DDOT = 0

CCSDS_OMM_VERS = 2.0
CREATION_DATE  = 
ORIGINATOR     = 

OBJECT_NAME    = SHENZHOU-22
OBJECT_ID      = 2025-272A
CENTER_NAME    = EARTH
REF_FRAME      = TEME
TIME_SYSTEM    = UTC
MEAN_ELEMENT_THEORY = SGP/SGP4

EPOCH          = 2026-03-01T00:16:27.697152
MEAN_MOTION    = 15.60257828
ECCENTRICITY   = .0006366
INCLINATION    = 41.4653
RA_OF_ASC_NODE = 260.9503
ARG_OF_PERICENTER = 218.7650
MEAN_ANOMALY   = 141.2732

EPHEMERIS_TYPE = 0
CLASSIFICATION_TYPE = U
NORAD_CAT_ID   = 66645
ELEMENT_SET_NO = 999
REV_AT_EPOCH   = 26775
BSTAR          = .29853E-3
MEAN_MOTION_DOT = .24837E-3
MEAN_MOTION_DDOT = 0

CCSDS_OMM_VERS = 2.0
CREATION_DATE  = 
ORIGINATOR     = 

OBJECT_NAME    = SOYUZ-MS 28
OBJECT_ID      = 2025-275A
CENTER_NAME    = EARTH
REF_FRAME      = TEME
TIME_SYSTEM    = UTC
MEAN_ELEMENT_THEORY = SGP/SGP4

EPOCH          = 2026-02-28T20:45:57.648384
MEAN_MOTION    = 15.48367881
ECCENTRICITY   = .0008297
INCLINATION    = 51.6324
RA_OF_ASC_NODE = 115.9816
ARG_OF_PERICENTER = 143.6601
MEAN_ANOMALY   = 216.4951

EPHEMERIS_TYPE = 0
CLASSIFICATION_TYPE = U
NORAD_CAT_ID   = 66664
ELEMENT_SET_NO = 999
REV_AT_EPOCH   = 55473
BSTAR          = .18358E-3
MEAN_MOTION_DOT = .9465E-4
MEAN_MOTION_DDOT = 0

CCSDS_OMM_VERS = 2.0
CREATION_DATE  = 
ORIGINATOR     = 

OBJECT_NAME    = DUPLEX
OBJECT_ID      = 1998-067XS
CENTER_NAME    = EARTH
REF_FRAME      = TEME
TIME_SYSTEM    = UTC
MEAN_ELEMENT_THEORY = SGP/SGP4

EPOCH          = 2026-03-01T04:07:53.593248
MEAN_MOTION    = 15.55590470
ECCENTRICITY   = .0001967
INCLINATION    = 51.6292
RA_OF_ASC_NODE = 112.0353
ARG_OF_PERICENTER = 86.4568
MEAN_ANOMALY   = 273.6648

EPHEMERIS_TYPE = 0
CLASSIFICATION_TYPE = U
NORAD_CAT_ID   = 66906
ELEMENT_SET_NO = 999
REV_AT_EPOCH   = 1380
BSTAR          = .45805E-3
MEAN_MOTION_DOT = .31633E-3
MEAN_MOTION_DDOT = 0

CCSDS_OMM_VERS = 2.0
CREATION_DATE  = 
ORIGINATOR     = 

OBJECT_NAME    = ISS OBJECT XT
OBJECT_ID      = 1998-067XT
CENTER_NAME    = EARTH
REF_FRAME      = TEME
TIME_SYSTEM    = UTC
MEAN_ELEMENT_THEORY = SGP/SGP4

EPOCH          = 2026-03-01T04:03:15.729120
MEAN_MOTION    = 15.66463408
ECCENTRICITY   = .0004436
INCLINATION    = 51.6254
RA_OF_ASC_NODE = 109.0047
ARG_OF_PERICENTER = 28.9077
MEAN_ANOMALY   = 331.2164

EPHEMERIS_TYPE = 0
CLASSIFICATION_TYPE = U
NORAD_CAT_ID   = 66907
ELEMENT_SET_NO = 999
REV_AT_EPOCH   = 1384
BSTAR          = .12318E-2
MEAN_MOTION_DOT = .132484E-2
MEAN_MOTION_DDOT = 0

CCSDS_OMM_VERS = 2.0
CREATION_DATE  = 
ORIGINATOR     = 

OBJECT_NAME    = ISS OBJECT XU
OBJECT_ID      = 1998-067XU
CENTER_NAME    = EARTH
REF_FRAME      = TEME
TIME_SYSTEM    = UTC
MEAN_ELEMENT_THEORY = SGP/SGP4

EPOCH          = 2026-03-01T04:01:26.834016
MEAN_MOTION    = 15.66535330
ECCENTRICITY   = .0004579
INCLINATION    = 51.6251
RA_OF_ASC_NODE = 108.9935
ARG_OF_PERICENTER = 31.2531
MEAN_ANOMALY   = 328.8736

EPHEMERIS_TYPE = 0
CLASSIFICATION_TYPE = U
NORAD_CAT_ID   = 66908
ELEMENT_SET_NO = 999
REV_AT_EPOCH   = 1384
BSTAR          = .12275E-2
MEAN_MOTION_DOT = .132413E-2
MEAN_MOTION_DDOT = 0

CCSDS_OMM_VERS = 2.0
CREATION_DATE  = 
ORIGINATOR     = 

OBJECT_NAME    = SILVERSAT
OBJECT_ID      = 1998-067XV
CENTER_NAME    = EARTH
REF_FRAME      = TEME
TIME_SYSTEM    = UTC
MEAN_ELEMENT_THEORY = SGP/SGP4

EPOCH          = 2026-03-01T04:23:07.764000
MEAN_MOTION    = 15.68808250
ECCENTRICITY   = .0005379
INCLINATION    = 51.6254
RA_OF_ASC_NODE = 108.3441
ARG_OF_PERICENTER = 26.9619
MEAN_ANOMALY   = 333.1656

EPHEMERIS_TYPE = 0
CLASSIFICATION_TYPE = U
NORAD_CAT_ID   = 66909
ELEMENT_SET_NO = 999
REV_AT_EPOCH   = 1385
BSTAR          = .13491E-2
MEAN_MOTION_DOT = .160308E-2
MEAN_MOTION_DDOT = 0

